"spkid","full_name","pdes","name","prefix","neo","pha","H","G","M1","M2","K1","K2","PC","diameter","extent","albedo","rot_per","GM","BV","UB","IR","spec_B","spec_T","H_sigma","diameter_sigma","orbit_id","epoch","epoch_mjd","epoch_cal","equinox","e","a","q","i","om","w","ma","ad","n","tp","tp_cal","per","per_y","moid","moid_ld","moid_jup","t_jup","sigma_e","sigma_a","sigma_q","sigma_i","sigma_om","sigma_w","sigma_ma","sigma_ad","sigma_n","sigma_tp","sigma_per","class","producer","data_arc","first_obs","last_obs","n_obs_used","n_del_obs_used","n_dop_obs_used","condition_code","rms","two_body","A1","A2","A3","DT"
2152563,"152563 (1992 BF)",152563,,,Y,N,19.8,,,,,,,0.272,,0.287,32.,,,,,Xc,,,0.077,"JPL 71",2459600.5,59600,20220121.0000000,J2000,.2715552306677705,.9076386898597774,.6611646560719125,7.257246138369145,315.2593904962365,336.5994779544046,86.79723931416919,1.154112723647642,1.139815539378808,2459524.349749090565,20211105.8497491,315.8405790784337,0.864724378038148,.0629336,24.491869112,3.99636,6.530,3.6639E-8,1.3701E-9,3.2835E-8,4.8724E-6,2.0482E-5,2.7336E-5,1.5409E-5,1.7421E-9,2.5808E-9,1.3539E-5,7.1513E-7,ATE,"Otto Matic",23775,1953-01-10,2018-02-13,385,,,0,.50334,,,-2.587739776128793E-14,,
2152664,"152664 (1998 FW4)",152664,,,Y,Y,19.68,,,,,,,,,,17.38,,,,,,,,,"JPL 121",2459600.5,59600,20220121.0000000,J2000,.7137349388531029,2.526204728305274,.7231641510178898,3.422889297292476,353.6784638079583,85.39405108860296,18.52170047565961,4.329245305592658,.245471602831747,2459525.046463778318,20211106.5464638,1466.564750655716,4.01523545696295,.0153855,5.987575035,1.0219,3.034,7.9516E-9,2.3804E-9,2.0183E-8,4.9748E-6,1.4257E-5,1.4726E-5,7.3962E-7,4.0794E-9,3.4695E-10,2.9299E-6,2.0729E-6,APO,"Otto Matic",10194,1994-03-09,2022-02-04,593,11,7,0,.38252,,,1.892633999391551E-14,,
2152671,"152671 (1998 HL3)",152671,,,Y,Y,20.22,,,,,,,0.298,,0.200,,,,,,,,,0.007,"JPL 97",2459600.5,59600,20220121.0000000,J2000,.3660266287016939,1.1288973965253,.715690888325025,2.67988838766575,163.6701597341032,188.140029561404,184.6222899546299,1.542103904725575,.8217171793282032,2459813.928311415797,20220822.4283114,438.1069412401951,1.19947143392251,.0453815,17.661118355,3.88964,5.475,6.6147E-8,3.2448E-9,7.5139E-8,3.9943E-6,9.7645E-5,9.7151E-5,2.4862E-5,4.4325E-9,3.5428E-9,3.0338E-5,1.8889E-6,APO,"Otto Matic",8781,1998-04-21,2022-05-06,403,,,0,.54841,,,-5.123838214285454E-14,,
2152754,"152754 (1999 GS6)",152754,,,Y,Y,19.22,,,,,,,0.414,,0.216,8.021,,,,,,,,0.077,"JPL 83",2459600.5,59600,20220121.0000000,J2000,.4973407727029066,1.191192271749782,.5987637868800145,2.020505974430932,314.4442978408065,134.9477364043204,245.2824032470775,1.783620756619549,.7581083379767845,2459751.820848230053,20220621.3208482,474.8661661745558,1.30011270684341,.0189396,7.370724132,3.44384,5.198,2.5337E-8,4.1185E-9,3.0891E-8,3.5854E-6,6.3216E-5,6.5072E-5,1.1853E-5,6.1667E-9,3.9317E-9,1.5947E-5,2.4627E-6,APO,"Otto Matic",7768,1999-04-15,2020-07-21,396,,,0,.40482,,,-2.689952190290488E-14,,
2152828,"152828 (1999 VT25)",152828,,,Y,Y,21.1,,,,,,,,,,,,,,,,,,,"JPL 45",2459600.5,59600,20220121.0000000,J2000,.5232495195288853,1.162235428784606,.5540962990936131,5.149530805953122,221.9597638307831,319.195832651582,187.0465398566957,1.7703745584756,.7866162408945031,2459820.370187204157,20220828.8701872,457.6564546781095,1.25299508467655,.0482805,18.789322185,3.19432,5.279,9.0295E-8,1.1091E-8,1.0534E-7,1.3337E-5,3.8357E-5,4.4818E-5,3.3935E-5,1.6895E-8,1.126E-8,4.5566E-5,6.5513E-6,APO,"Otto Matic",7613,1999-11-12,2020-09-15,126,,,0,.45566,,,7.082140054782419E-14,,
2153201,"153201 (2000 WO107)",153201,,,Y,Y,19.34,,,,,,,0.510,,0.129,5.022,,,,,X,,,0.083,"JPL 153",2459600.5,59600,20220121.0000000,J2000,.7807129760035812,.9111838642461323,.1998107979040912,7.770069819879144,69.22821139471999,213.7206228908505,166.2673904089518,1.622556930588174,1.133169934691618,2459453.772324548392,20210827.2723245,317.6928622783932,0.869795653055149,.00303931,1.1828082727,3.55732,6.229,3.3689E-8,5.7457E-9,3.0315E-8,7.6454E-6,7.3684E-6,7.7208E-6,5.9865E-6,1.0231E-8,1.0718E-8,4.031E-6,3.0049E-6,ATE,Giorgini,7732,2000-11-29,2022-01-30,982,4,4,0,.3137,,,-1.602845817329482E-14,,
2154590,"154590 (2003 MA3)",154590,,,Y,Y,21.7,,,,,,,0.086,,0.530,,,,,,,,,0.002,"JPL 39",2459600.5,59600,20220121.0000000,J2000,.4022159956430036,1.105105519436301,.6606144026456507,1.415831893796936,152.6726596385722,228.8541176977241,288.7008332269106,1.549596636226952,.8483956867720619,2459684.539992051781,20220415.0399921,424.330304376855,1.16175305784218,.0131059,5.100423103,3.91074,5.552,6.3096E-8,7.9224E-9,6.977E-8,3.9573E-6,.00027312,.00027206,1.9539E-5,1.1109E-8,9.1231E-9,2.3849E-5,4.563E-6,APO,"Otto Matic",7418,1998-01-29,2018-05-22,115,,,0,.49289,,,-7.471465619274135E-14,,
2162004,"162004 (1991 VE)",162004,,,Y,N,18.15,,,,,,,,,,13.4895,,,,,,,,,"JPL 216",2459600.5,59600,20220121.0000000,J2000,.6645518395849802,.8908238612391899,.2988252255064911,7.217526701714977,61.86235961032707,193.65229177097,61.47298395201536,1.482822496971889,1.172239393416479,2459548.059360061384,20211129.5593601,307.1045061459536,0.840806313883514,.0576611,22.439970287,3.57974,6.455,3.3145E-8,2.5683E-9,2.9885E-8,3.0674E-6,2.243E-5,2.2095E-5,1.0371E-5,4.275E-9,5.0694E-9,8.6393E-6,1.3281E-6,ATE,"Otto Matic",24109,1954-11-24,2020-11-26,1110,1,1,0,.42598,,,2.349176497474176E-14,,
2162080,"162080 (1998 DG16)",162080,,,Y,N,20.00,,,,,,,0.777,,0.035,,,,,,,,,0.063,"JPL 84",2459600.5,59600,20220121.0000000,J2000,.3582318717498442,.8966925898987628,.5754687250351135,16.20733826723295,344.3355580390142,356.8694324975556,243.002240519189,1.217916454762412,1.160750027507904,2459701.294965934226,20220501.7949659,310.1442959022876,0.849128804660609,.188277,73.27176009,4.17244,6.547,1.4114E-7,5.4322E-9,1.2562E-7,1.6244E-5,1.6246E-5,3.2973E-5,5.4548E-5,7.3781E-9,1.0548E-8,4.7125E-5,2.8183E-6,ATE,"Otto Matic",14640,1981-03-02,2021-04-01,324,,,0,.42042,,,-2.752415771886889E-14,,
2162117,"162117 (1998 SD15)",162117,,,Y,N,19.0,,,,,,,,,,7.33,,,,,,,,,"JPL 79",2459600.5,59600,20220121.0000000,J2000,.3448326604689678,.9326693533400466,.6110544988899266,26.7978646142551,183.9248952609015,35.83523881565992,72.6753669286324,1.254284207790167,1.094239818061831,2459534.083693693985,20211115.5836937,328.9955218753133,0.900740648529263,.1119,43.548123,3.73736,6.288,1.707E-7,2.7498E-9,1.5947E-7,1.4949E-5,4.3789E-6,1.2765E-5,3.0314E-5,3.6981E-9,4.8393E-9,2.7633E-5,1.455E-6,ATE,"Otto Matic",7263,1998-09-23,2018-08-12,530,,,0,.37678,,,-1.733572845039074E-14,,
2162173,"162173 Ryugu (1999 JU3)",162173,Ryugu,,Y,Y,19.38,,,,,,,0.896,1.004x0.876,0.045,7.63262,3.00e-8,,,,Cb,,,0.004,"JPL 249",2459600.5,59600,20220121.0000000,J2000,.1910463568812098,1.191013427270412,.963474650993796,5.865892424105133,251.3056516599432,211.6121301641609,289.0111482447104,1.418552203547028,.7582791025260808,2459694.118367588929,20220424.6183676,474.7592262541851,1.29981992129825,.00127181,0.4949502977,3.6955,5.303,1.1727E-8,3.609E-9,1.5303E-8,9.4198E-7,6.5305E-6,7.2979E-6,1.9762E-6,4.2985E-9,3.4466E-9,2.5911E-6,2.1579E-6,APO,"Otto Matic",12852,1986-04-14,2021-06-21,2115,2,0,0,.31049,,,-1.761724002187707E-14,,
2162361,"162361 (2000 AF6)",162361,,,Y,Y,20.14,,,,,,,,,,3.4558,,,,,,,,,"JPL 105",2459600.5,59600,20220121.0000000,J2000,.411236428552207,.8772429161342594,.5164886723304833,2.696119063030441,110.6623170804929,200.3297083105124,67.91654407507606,1.237997159938035,1.199566334858444,2459543.882419044720,20211125.3824190,300.1084554798566,0.821652171060525,.0234047,9.108407099,4.02046,6.679,7.568E-8,5.8029E-9,6.8881E-8,4.5321E-6,6.2532E-5,6.4266E-5,2.4794E-5,8.1893E-9,1.1903E-8,2.0803E-5,2.9778E-6,ATE,"Otto Matic",10295,1991-01-15,2019-03-24,389,,,0,.36839,,,3.706822935450665E-14,,
2162783,"162783 (2000 YJ11)",162783,,,Y,Y,20.7,,,,,,,,,,,,,,,,,,,"JPL 39",2459600.5,59600,20220121.0000000,J2000,.2322098642851441,1.313607906606876,1.008575192889801,7.262622130367006,64.93255689679314,339.126408575169,32.41373664341744,1.618640620323951,.6546443789476374,2459550.986496660181,20211202.4864967,549.9168885841684,1.5055903862674,.0306288,11.919810096,3.7562,4.931,1.0824E-7,1.3477E-8,1.4133E-7,1.2879E-5,5.834E-5,6.0018E-5,4.8338E-5,1.6607E-8,1.0075E-8,7.3317E-5,8.4629E-6,APO,"Otto Matic",7768,2000-12-19,2022-03-27,136,,,0,.52892,,,-8.776634937063247E-14,,
2163023,"163023 (2001 XU1)",163023,,,Y,N,19.51,,,,,,,,,,,,,,,,,,,"JPL 71",2459600.5,59600,20220121.0000000,J2000,.5463769461984437,.797330657428975,.3616875677125342,27.15041030774631,69.69384646551099,208.5230539572105,211.5275509814907,1.232973747145416,1.384351511698584,2459707.750541328434,20220508.2505413,260.0495589146169,0.71197688956774,.0566546,22.048270682,3.91147,7.109,1.7181E-7,6.1684E-9,1.3718E-7,1.8991E-5,9.0761E-6,1.3682E-5,4.3101E-5,9.5387E-9,1.6065E-8,3.1772E-5,3.0178E-6,ATE,"Otto Matic",7349,2001-11-23,2022-01-06,374,,,0,.43032,,,4.90318772327395E-14,,
2163899,"163899 (2003 SD220)",163899,,,Y,Y,17.65,,,,,,,0.791,,0.340,285,,,,,,,,0.025,"JPL 161",2459600.5,59600,20220121.0000000,J2000,.2097585111276028,.827399188939586,.6538451669594323,8.546672397722562,273.7860465148801,326.9009097697872,259.3584741359305,1.00095321091974,1.309578202080006,2459677.350336775780,20220407.8503368,274.8976727225692,0.752628809644269,.0180705,7.032496485,4.00083,7.060,5.1854E-9,4.7082E-10,4.2697E-9,2.9975E-7,9.9238E-7,2.2961E-6,3.2768E-6,5.6957E-10,1.1178E-9,2.5076E-6,2.3464E-7,ATE,Giorgini,8028,2000-01-06,2021-12-29,1445,12,7,0,.2201,,,-1.37225557583973E-14,,
